0 SL-8 R/B
1 21153U 91019B   13282.12913109  .00000220  00000-0  21243-3 0  5977
2 21153 082.9226 123.9904 0028080 311.8078 196.4506 13.75680640133443
0 SL-8 R/B
1 21153U 91019B   13284.16170500  .00000210  00000-0  20156-3 0  5985
2 21153 082.9222 122.4788 0028006 305.8630 182.9423 13.75681040133722
0 SL-8 R/B
1 21153U 91019B   13286.54755705  .00000165  00000-0  15550-3 0  5997
2 21153 082.9219 120.7045 0027953 298.8696 119.0933 13.75681873134056
0 SL-8 R/B
1 21153U 91019B   13288.58429313  .00000187  00000-0  17789-3 0  6009
2 21153 082.9219 119.1897 0027939 292.9147 126.2071 13.75682974134330
0 SL-8 R/B
1 21153U 91019B   13291.14594256  .00000165  00000-0  15495-3 0  6013
2 21153 082.9222 117.2845 0027924 285.4274 213.0081 13.75683882134681
0 SL-8 R/B
1 21153U 91019B   13293.45512978  .00000195  00000-0  18604-3 0  6029
2 21153 082.9223 115.5670 0027930 278.6556 129.4971 13.75684405135000
0 SL-8 R/B
1 21153U 91019B   13295.49317764  .00000228  00000-0  22053-3 0  6032
2 21153 082.9223 114.0514 0027951 272.6720 143.1522 13.75685126135287
